ARIANE 5 R/B            
1 28499U 04049H   26056.57365278  .00000785  00000+0  92852-4 0  9990
2 28499  98.2608 224.5789 0084795  31.1190 329.5006 14.85239405143994
CZ-2D R/B               
1 28738U 05024B   26056.51810059  .00038345  00000+0  49341-3 0  9993
2 28738  97.3619  71.2297 0007416  76.1882 284.0199 15.58941608137880
ALOS (DAICHI)           
1 28931U 06002A   26056.45314133  .00001371  00000+0  23809-3 0  9990
2 28931  98.1197  12.4722 0001446  53.7253 306.4086 14.69763473 71687
H-2A R/B                
1 28932U 06002B   26056.40050881  .00008505  00000+0  43031-3 0  9998
2 28932  98.2385 202.3724 0051984 283.4223  76.1216 15.16125029 92570
RESURS-DK 1             
1 29228U 06021A   26056.56666429  .00002060  00000+0  12365-3 0  9992
2 29228  69.9312 268.3836 0002801 172.0392 188.0819 15.12657049 85699
CZ-4B R/B               
1 29507U 06046C   26056.07512789  .00004456  00000+0  22772-3 0  9998
2 29507  97.5624 101.0176 0032093 313.1500  46.7050 15.16753501 58137
CZ-2C R/B               
1 31114U 07010B   26056.32665517  .00000109  00000+0  69259-4 0  9996
2 31114  98.3975 170.2257 0058324 331.1375  28.6580 14.20241277977969
COSMO-SKYMED 1          
1 31598U 07023A   26056.56193910  .00002720  00000+0  24510-3 0  9996
2 31598  97.8878 247.4976 0001261  82.5978 277.5386 14.96431554 13096
COSMOS 2428             
1 31792U 07029A   26056.49955211  .00000166  00000+0  11467-3 0  9999
2 31792  70.9407 228.9302 0008398 290.1859  69.8358 14.12942451962378
SL-16 R/B               
1 31793U 07029B   26056.54614602 -.00000208  00000+0 -82755-4 0  9990
2 31793  70.9755 197.9090 0002467 280.4226 148.7716 14.14835580963658
KORONAS-FOTON           
1 33504U 09003A   26056.11956239  .00011879  00000+0  26845-3 0  9995
2 33504  82.4296 288.9440 0010124 193.7978 166.2995 15.42975757943809
CZ-2C R/B               
1 37731U 11030B   26056.46180017  .00001606  00000+0  20830-3 0  9990
2 37731  97.8521  13.9722 0053547  31.6017  81.0360 14.81165632788289
H-2A R/B                
1 38341U 12025E   26056.48125214  .00003161  00000+0  28937-3 0  9997
2 38341  98.4704  22.5540 0044695 354.5652   5.5075 14.95044297746395
SHIJIAN-16 (SJ-16)      
1 39358U 13057A   26056.62878700  .00001048  00000+0  10530-3 0  9995
2 39358  74.9715 207.9183 0016068 143.4875 216.7412 14.92281280669704
SL-4 R/B                
1 39679U 14021B   26056.16095316  .00014360  00000+0  32169-3 0  9999
2 39679  51.6071  38.3777 0098479  57.3095 303.7340 15.38703128654347
ALOS-2                  
1 39766U 14029A   26056.61259466  .00001738  00000+0  23949-3 0  9993
2 39766  97.9194 155.3841 0001614  98.5535 261.5859 14.79487912635086
YAOGAN-29               
1 41038U 15069A   26056.58195601  .00001051  00000+0  13604-3 0  9994
2 41038  98.0164  84.9787 0002574  57.1034 303.0427 14.82982461554083
ASTRO-H (HITOMI)        
1 41337U 16012A   26056.33858553  .00003123  00000+0  18217-3 0  9997
2 41337  30.9997  76.2448 0009957 208.5598 151.4495 15.09902171550368
HXMT (HUIYAN)           
1 42758U 17034A   26056.53391166  .00004943  00000+0  25238-3 0  9996
2 42758  43.0142  84.2442 0031378 159.9943 200.2142 15.17285709480691
CZ-2C R/B               
1 43521U 18054D   26056.55140789  .01532910  14472-5  78788-3 0  9996
2 43521  35.1247  23.1165 0010738 202.6117 157.4158 16.19179884426956
SAOCOM 1A               
1 43641U 18076A   26056.60862789  .00000643  00000+0  87282-4 0  9998
2 43641  97.8886 244.9515 0001280  81.9290 278.2068 14.82153636399571
H-2A R/B                
1 43682U 18084L   26056.52571440  .00018815  00000+0  45657-3 0  9993
2 43682  98.8752 271.3188 0026189  66.2071 294.1913 15.40757078403901
SAOCOM 1B               
1 46265U 20059A   26056.57235537  .00000290  00000+0  42972-4 0  9993
2 46265  97.8887 244.0136 0001466  83.3482 276.7898 14.82157286296959
CSS (TIANHE)            
1 48274U 21035A   26056.29872934  .00013605  00000+0  16666-3 0  9991
2 48274  41.4665 283.5238 0005654 192.4411 167.6289 15.60093757275675
COSMOS 2550             
1 48865U 21056A   26056.64955148 -.00000190  00000+0  44397-7 0  9990
2 48865  67.1416  77.3519 0008301 269.9477  90.0726 15.33840594261618
CZ-2C R/B               
1 52794U 22058K   26056.16426629  .00029950  00000+0  45431-3 0  9993
2 52794  50.1898  22.6720 0042081 147.4109 212.9471 15.53283064208182
CZ-2C R/B               
1 54039U 22132E   26056.51412868  .00035259  00000+0  42144-3 0  9996
2 54039  97.2971  59.4736 0020517 130.1768 230.1290 15.60670990188471
GSLV R/B                
1 54149U 22138AN  26056.35208591  .00002800  00000+0  24195-3 0  9994
2 54149  87.3876 170.4906 0021281 190.3310 169.7487 14.96670010182087
XRISM                   
1 57800U 23137A   26056.22490928  .00005943  00000+0  33819-3 0  9998
2 57800  31.0036   4.2740 0008312 274.3508  85.6181 15.11327922135905
ACS3                    
1 59588U 24077B   26056.47063180  .00017482  00000+0  14265-1 0  9993
2 59588  97.2131   0.3302 0051704 110.9814 249.6892 13.89018377 92502
SZ-21 MODULE            
1 66515U 25246C   26056.01670222  .00030552  00000+0  27555-3 0  9992
2 66515  41.4748 281.3118 0001473 289.6520  70.4162 15.67483837 16081
